#dP2024  1 17  0  0  0.00000000      96 __u+U IGS20 EXT  IAC
## 2297 259200.00000000   900.00000000 60326 0.0000000000000
+  119   C06C07C08C09C10C11C12C13C14C16C19C20C21C22C23C24C25
+        C26C27C28C29C30C32C33C34C35C36C37C38C39C40C41C42C43
+        C44C45C46E02E03E04E05E07E08E09E10E11E12E13E14E15E18
+        E19E21E24E25E26E27E30E31E33E34E36G01G02G03G04G05G06
+        G07G08G09G10G11G12G13G14G15G16G17G18G19G20G21G22G23
+        G24G25G26G28G29G30G31G32J02J03J04R01R02R03R04R05R07
+        R08R09R11R12R13R14R15R16R17R18R19R20R21R22R24R25R26
++        10 11 11 10 10  9  9 11  9  9  9 10  8  9  7  6  9
++         7  9  9  8  8  7  8  9  8  7  9 10 10 10  8  9  6
++         8  9  7  7  7  6  8  7  9  7  7  8  8  7  8  7  7
++         8  9  7  5  7  8  8  8  6  6  6  7  8  7  8  7  7
++         6  7  7  7  7  6  7  7  8  7  7  7  7  6  8  7  7
++         6  6  7  7  6  8  6  8  8  0  8  9  9  7  7 10  7
++         7  8 10  8  8  8  8  7  7  9  8 10  7  8  7  7 11
%c M  cc GPS ccc cccc cccc cccc cccc ccccc ccccc ccccc ccccc
%c cc cc ccc ccc cccc cccc cccc cccc ccccc ccccc ccccc ccccc
%f  0.0000000  0.000000000  0.00000000000  0.000000000000000
%f  0.0000000  0.000000000  0.00000000000  0.000000000000000
%i    0    0    0    0      0      0      0      0         0
%i    0    0    0    0      0      0      0      0         0
/* IAC                                ULTRA-RAPID PREDICTION
/* S/V CLOCKS ARE ALIGNED TO GNSS TIME                      
/* G:C1WC2W R:C1PC2P E:C1XC5X C:C2IC6I J:C1CC2S             
/* PCV:IGS20_2290 OL/AL:FES2004  NONE     YN ORB:CoN CLK:CoN
*  2024 01 17 19 15  0.00000000
PC06 -17814.738599  37102.487821  -9809.545452     53.995913
PC07  -1850.387287  34764.363978 -23550.569286   -653.342032
PC08 -10092.308319  19349.041351  36040.624667    105.638273
PC09 -11382.385322  36120.443561 -18726.108089   -365.977434
PC10   4234.738735  36838.219323 -19224.076658    122.140374
PC11 -12399.106285  24304.747917  -5763.690561    363.145645
PC12 -17062.815690   8609.513270 -20290.564848    793.705818
PC13  -1497.449074  21797.795002  36229.311167    408.453308
PC14  -6464.295368  15350.900471  22395.505125    -11.785748
PC16 -18418.341048  36960.162052  -9063.379202   -287.028908
PC19  -2568.212873 -20874.774974 -18325.348557   -936.747579
PC20  12963.890643  -8915.318408 -23034.337269    -74.736291
PC21 -22059.369305  -9634.417666  14150.901011   -964.065646
PC22 -17493.872268 -21573.836339  -2818.618344   -144.048803
PC23  11795.025482  13255.029645 -21547.692826   -789.288396
PC24 -24646.064942  10989.816982  -7076.812881    798.855419
PC25  -7989.041472  17266.428067 -20423.984817    304.178985
PC26 -26137.794344   -486.214978   9691.902524   -236.103154
PC27  16205.107911   1281.402227  22665.223662    258.142191
PC28   8206.212477  18576.682620  19148.389285    195.887406
PC29   5464.612193 -27237.126171  -2627.134648    229.489140
PC30  15594.953151 -17757.312295  14816.365991    -16.025267
PC32  22133.797113   9547.133762 -14036.588715   -554.944808
PC33   2544.897314  20816.624426  18408.393965   -943.540144
PC34 -15168.148269  19063.930739 -13640.857998    349.298956
PC35  -8955.448040 -18273.104714 -19087.079779    455.026149
PC36   9118.746777 -17045.899802  20142.482865    -49.001053
PC37  25961.287266   1454.241803 -10169.565961   -932.123717
PC38 -18928.190074  19965.719075  31953.284153    131.083846
PC39 -21019.863504  36658.832794  -1446.662605     -6.682839
PC40  -5991.515089  30963.217211 -27841.534962    -52.496529
PC41  17062.409492  21777.221809   3679.282070   -880.567941
PC42 -14224.583904   7516.047496  22848.042177   -464.583913
PC43  -6116.569947  27186.395094   1722.100853     56.799885
PC44 -16363.303348   -862.712719 -22601.905901    356.763853
PC45 -12065.909047 -13014.096339  21518.548552    -63.778192
PC46  24222.361101 -11388.214825   7959.360018   -116.418953
PE02 -19538.634925 -17452.488896  13746.899659     95.854488
PE03 -12054.213501 -24733.323555  10918.652416    -87.650457
PE04  17457.318863   6185.989737 -23085.509007   -305.907600
PE05    294.534698 -28645.589505  -7442.223674   4711.265410
PE07 -12775.161824  15435.790644  21789.285055    -98.910332
PE08 -17318.413595  -6948.004724  22977.156929   -209.519575
PE09  12693.092530 -15307.890423 -21927.699857   -303.040924
PE10  24882.091416 -11360.720816  11317.429120   -594.891674
PE11  23177.727938 -18364.420099   1101.195134   3278.987415
PE12  22760.103839  -3265.400103  18634.458450   -866.962807
PE13 -23408.611052  18035.052478  -1796.690514    -19.929323
PE14 -17204.117626 -21501.295765 -17043.943260     13.313934
PE15 -22503.224245   2883.549869 -19004.204173    -80.716985
PE18  14663.583192   9859.501169  15990.833114    222.030309
PE19  10681.659843  26125.228020  -8925.659444   -793.770627
PE21    237.362987  17605.310647 -23802.897530   -574.375052
PE24  20506.535438  -7174.545909  20095.475353   -547.466415
PE25    219.149124 -17489.314146  23876.225660     -0.379134
PE26  -9966.204254  22396.816272  16603.460395    342.129842
PE27 -20093.286738   7533.326430 -20386.661767   -251.792922
PE30 -28328.743272  -7115.139921  -4755.294037   -832.432030
PE31  28361.483351   6873.195521   4986.637813    -13.978759
PE33   7892.463437  14146.271731  24783.924340      6.113346
PE34  -8445.098508 -13730.666833 -24822.715372    -89.529712
PE36  10626.457062 -22392.167757 -16163.741868   -173.180862
PG01   8767.716024 -20012.347170 -15210.240636    166.386091
PG02  14055.191623 -21060.650308  -7106.962487   -499.424346
PG03   4054.488001 -14266.329485 -22179.851730    132.790580
PG04   2318.734816 -24961.979930  -8550.685518    268.578861
PG05 -16202.905017   8707.619547  19019.852570   -158.329875
PG06 -19842.344074   1454.067326 -17574.688597    441.250600
PG07  -5463.244458 -15390.478514  21355.211697    -39.712775
PG08   7163.138860 -19817.918174  15814.757774   -162.541343
PG09  -7476.489315 -25252.351243   3110.977259     62.012378
PG10  24095.981602  11100.946862   3535.161889    -69.719548
PG11 -22941.341490  10310.368586  -8432.438586   -543.450427
PG12  -5277.860573  14376.178397 -21988.020258   -468.862026
PG13 -13218.573863  11002.539684  19974.780378    616.813978
PG14 -21977.453895 -13592.126513   6568.225119    301.303422
PG15  -4895.965523  20674.326701  15319.461730    118.239873
PG16  21662.150923  -1735.298076  15247.984339   -382.127189
PG17 -12386.616036 -17725.089669 -14892.807232    719.637300
PG18   5906.805466  14175.241485  21664.494520   -534.433422
PG19 -14744.514376  -8941.460561 -20485.683520    427.908685
PG20 -24879.172539   2151.276904   8852.164819    391.042382
PG21  16733.704863 -19687.979437  -2673.435658    138.082089
PG22 -24117.370157 -10687.469538   -617.373847     46.583255
PG23  16188.578497  15494.786744  14424.528213    137.314077
PG24 -13923.090952  21444.100762  -6749.837041   -415.636731
PG25   7750.114762  17108.545060 -19217.977875    485.596028
PG26  25941.569140   2579.854524   5864.054276    199.400368
PG28  18548.842157   1065.187888 -19000.444938   -101.725864
PG29   4243.328856  26068.393371   2184.841020   -608.552584
PG30 -15014.351261  -7402.234449  20792.446665   -444.240429
PG31  22602.700453  -6597.138087 -12887.888630   -227.366900
PG32  14767.215417  14020.402110 -16968.330983   -605.778895
PJ02 -27808.005185  14946.381966 -23325.367956     -1.244140
PJ03      0.000000      0.000000      0.000000     -0.170285
PJ04 -24342.505851  27743.546701  26329.368776     77.190337
PR01 -16061.485903 -19087.829006   5350.481164     74.803616
PR02 -14843.717761  -6305.850741  19783.230765    -22.411714
PR03  -5806.808216  10559.974497  22538.103552     92.866640
PR04   6142.739141  21099.429377  12998.427755    219.646506
PR05  14755.119720  20515.410577  -3572.009857    125.471408
PR07   5251.648347 -11193.603576 -22260.562236     73.765441
PR08  -6441.040764 -21129.602984 -12662.208894    -74.074371
PR09  25395.174923  -1276.127466  -1397.090780    164.894712
PR11   3142.062124 -11034.428702  22785.572730     37.297498
PR12 -17099.096532  -7462.692806  17403.251076     35.704900
PR13 -25224.208795   -187.073775   3747.331921    -43.402509
PR14 -18929.409322   8395.478344 -14901.822804     25.950612
PR15  -1604.043722  11121.203844 -22888.554275     83.010589
PR16  16880.140323   7353.249969 -17636.851470     22.520284
PR17 -14119.900734  20026.375286  -7010.149896     53.233927
PR18  -7247.655600  22546.730004   9567.854580    122.620878
PR19   1988.062210  14909.963067  20607.265426   -262.430913
PR20  13594.762817  -4741.662842  21058.009373   -106.884819
PR21  14183.847755 -20146.705609   6651.329939    -69.708238
PR22   7115.324413 -22162.876937 -10384.379063    103.618249
PR24 -13946.308564   5706.352941 -20555.450392    -40.280192
PR25  15030.286340 -19434.884327   6901.717393     43.566553
PR26  -6004.121198 -20845.289372 -13414.065806   -203.014170
EOF
